NORAD_CAT_ID,OBJECT_NAME,OBJECT_TYPE,EPOCH,MEAN_MOTION,ECCENTRICITY,INCLINATION,RA_OF_ASC_NODE,ARG_OF_PERICENTER,MEAN_ANOMALY,BSTAR,MEAN_MOTION_DOT,MEAN_MOTION_DDOT,TLE_LINE0,TLE_LINE1,TLE_LINE2,SEMIMAJOR_AXIS,PERIOD,APOGEE,PERIGEE,DECAYED
53022.0,STARLINK-4216,PAYLOAD,2022-12-11 05:46:21,15.08885852,0.0003142,53.2189,1.3204,30.8105,329.3071,-0.00062848,-0.00010291,0.0,0 STARLINK-4216,1 53022U 22076AN  22345.24052309 -.00010291  00000-0 -62848-3 0  9996,2 53022  53.2189   1.3204 0003142  30.8105 329.3071 15.08885852 24640,6917.74,95.435,541.779,537.432,0.0
53022.0,STARLINK-4216,PAYLOAD,2022-12-11 08:57:07,15.08875944,0.0002701,53.2189,0.7258,25.8614,334.2513,-0.00041453,-6.887e-05,0.0,0 STARLINK-4216,1 53022U 22076AN  22345.37300635 -.00006887  00000-0 -41453-3 0  9993,2 53022  53.2189   0.7258 0002701  25.8614 334.2513 15.08875944 24660,6917.771,95.435,541.504,537.7669999999998,0.0
53022.0,STARLINK-4216,PAYLOAD,2022-12-12 11:58:42,15.08841484,0.0002976,53.2177,355.6708,25.9945,334.1197,0.00015715,2.214e-05,0.0,0 STARLINK-4216,1 53022U 22076AN  22346.49910555  .00002214  00000-0  15715-3 0  9995,2 53022  53.2177 355.6708 0002976  25.9945 334.1197 15.08841484 24839,6917.876,95.437,541.8,537.682,0.0
53022.0,STARLINK-4216,PAYLOAD,2022-12-13 10:14:06,15.08845603,0.0003027,53.2179,351.5093,23.9825,336.1307,3.6276e-05,2.89e-06,0.0,0 STARLINK-4216,1 53022U 22076AN  22347.42645993  .00000289  00000-0  36276-4 0  9996,2 53022  53.2179 351.5093 0003027  23.9825 336.1307 15.08845603 24502,6917.863,95.437,541.822,537.634,0.0
53022.0,STARLINK-4216,PAYLOAD,2022-12-14 03:43:20,15.0885355,0.0003085,53.2184,348.2388,24.3532,335.7605,-3.3075e-05,-8.15e-06,0.0,0 STARLINK-4216,1 53022U 22076AN  22348.15509612 -.00000815  00000-0 -33075-4 0  9995,2 53022  53.2184 348.2388 0003085  24.3532 335.7605 15.08853550 25082,6917.839,95.437,541.8380000000002,537.57,0.0
53022.0,STARLINK-4216,PAYLOAD,2022-12-14 10:04:53,15.0884676,0.0002493,53.2186,347.0478,27.3288,332.7835,-1.9334e-05,-5.96e-06,0.0,0 STARLINK-4216,1 53022U 22076AN  22348.42005795 -.00000596  00000-0 -19334-4 0  9996,2 53022  53.2186 347.0478 0002493  27.3288 332.7835 15.08846760 24653,6917.86,95.437,541.4490000000002,538.0,0.0
53022.0,STARLINK-4216,PAYLOAD,2022-12-15 11:31:02,15.08848417,0.0002923,53.2184,342.2899,25.7708,334.3429,0.0001037,1.363e-05,0.0,0 STARLINK-4216,1 53022U 22076AN  22349.47989257  .00001363  00000-0  10370-3 0  9997,2 53022  53.2184 342.2899 0002923  25.7708 334.3429 15.08848417 25280,6917.855,95.437,541.742,537.698,0.0
53022.0,STARLINK-4216,PAYLOAD,2022-12-15 16:17:12,15.08846694,0.000292,53.2188,341.3976,25.9257,334.1881,4.9966e-05,5.07e-06,0.0,0 STARLINK-4216,1 53022U 22076AN  22349.67861453  .00000507  00000-0  49966-4 0  9999,2 53022  53.2188 341.3976 0002920  25.9257 334.1881 15.08846694 24844,6917.86,95.437,541.745,537.705,0.0
53022.0,STARLINK-4216,PAYLOAD,2022-12-16 08:11:03,15.08847909,0.0002742,53.2192,338.4234,24.0323,336.0797,5.3054e-05,5.56e-06,0.0,0 STARLINK-4216,1 53022U 22076AN  22350.34101251  .00000556  00000-0  53054-4 0  9995,2 53022  53.2192 338.4234 0002742  24.0323 336.0797 15.08847909 25410,6917.856,95.437,541.618,537.8240000000002,0.0
53022.0,STARLINK-4216,PAYLOAD,2022-12-16 16:08:00,15.0883152,0.0002933,53.2179,336.9358,22.1142,337.9977,6.551000000000001e-06,-1.84e-06,0.0,0 STARLINK-4216,1 53022U 22076AN  22350.67222423 -.00000184  00000-0  65510-5 0  9995,2 53022  53.2179 336.9358 0002933  22.1142 337.9977 15.08831520 25462,6917.906,95.438,541.8,537.742,0.0
53022.0,STARLINK-4216,PAYLOAD,2022-12-17 11:12:37,15.08834152,0.0003018,53.2196,333.3678,17.0935,343.0159,-4.1063e-06,-3.54e-06,0.0,0 STARLINK-4216,1 53022U 22076AN  22351.46710494 -.00000354  00000-0 -41063-5 0  9990,2 53022  53.2196 333.3678 0003018  17.0935 343.0159 15.08834152 25111,6917.898,95.438,541.851,537.675,0.0
53022.0,STARLINK-4216,PAYLOAD,2022-12-17 15:58:46,15.08839234,0.0003033,53.2197,332.476,25.7591,334.3552,5.896399999999999e-05,6.5e-06,0.0,0 STARLINK-4216,1 53022U 22076AN  22351.66582094  .00000650  00000-0  58964-4 0  9999,2 53022  53.2197 332.4760 0003033  25.7591 334.3552 15.08839234 25616,6917.8830000000025,95.438,541.846,537.65,0.0
53022.0,STARLINK-4216,PAYLOAD,2022-12-18 03:06:28,15.08847426,0.0002841,53.2192,330.3948,23.9236,336.1888,8.261700000000001e-05,1.027e-05,0.0,0 STARLINK-4216,1 53022U 22076AN  22352.12949413  .00001027  00000-0  82617-4 0  9994,2 53022  53.2192 330.3948 0002841  23.9236 336.1888 15.08847426 25689,6917.858,95.437,541.688,537.757,0.0
53022.0,STARLINK-4216,PAYLOAD,2022-12-18 06:17:14,15.08840854,0.0002764,53.2185,329.801,23.5024,336.6094,0.00011895,1.605e-05,0.0,0 STARLINK-4216,1 53022U 22076AN  22352.26197718  .00001605  00000-0  11895-3 0  9993,2 53022  53.2185 329.8010 0002764  23.5024 336.6094 15.08840854 25232,6917.878000000002,95.438,541.655,537.831,0.0
53022.0,STARLINK-4216,PAYLOAD,2022-12-18 15:49:34,15.08832894,0.0002754,53.2187,328.0166,23.8374,336.2746,9.7115e-07,-2.73e-06,0.0,0 STARLINK-4216,1 53022U 22076AN  22352.65942663 -.00000273  00000-0  97115-6 0  9996,2 53022  53.2187 328.0166 0002754  23.8374 336.2746 15.08832894 25298,6917.901999999999,95.438,541.672,537.862,0.0
53022.0,STARLINK-4216,PAYLOAD,2022-12-19 04:32:39,15.08837476,0.0002885,53.2197,325.6398,26.6409,333.4731,0.00011326,1.514e-05,0.0,0 STARLINK-4216,1 53022U 22076AN  22353.18934494  .00001514  00000-0  11326-3 0  9993,2 53022  53.2197 325.6398 0002885  26.6409 333.4731 15.08837476 25849,6917.888000000001,95.438,541.749,537.757,0.0
53022.0,STARLINK-4216,PAYLOAD,2022-12-19 07:43:26,15.08831505,0.0002768,53.2181,325.0441,23.3985,336.7132,9.276e-05,1.188e-05,0.0,0 STARLINK-4216,1 53022U 22076AN  22353.32183009  .00001188  00000-0  92760-4 0  9996,2 53022  53.2181 325.0441 0002768  23.3985 336.7132 15.08831505 25868,6917.906,95.438,541.686,537.856,0.0
53022.0,STARLINK-4216,PAYLOAD,2022-12-19 15:40:21,15.08837697,0.000281,53.2181,323.5586,24.1882,335.9242,0.00013356,1.838e-05,0.0,0 STARLINK-4216,1 53022U 22076AN  22353.65302686  .00001838  00000-0  13356-3 0  9991,2 53022  53.2181 323.5586 0002810  24.1882 335.9242 15.08837697 25449,6917.887,95.438,541.696,537.809,0.0
53022.0,STARLINK-4216,PAYLOAD,2022-12-20 07:34:11,15.08861884,0.0002873,53.2177,320.584,27.2313,332.8829,0.00045856,7.022e-05,0.0,0 STARLINK-4216,1 53022U 22076AN  22354.31541408  .00007022  00000-0  45856-3 0  9993,2 53022  53.2177 320.5840 0002873  27.2313 332.8829 15.08861884 25549,6917.813,95.436,541.6659999999998,537.691,0.0
53022.0,STARLINK-4216,PAYLOAD,2022-12-20 21:52:40,15.08849846,0.0002695,53.2183,317.9068,29.2469,330.8674,0.00017259,2.46e-05,0.0,0 STARLINK-4216,1 53022U 22076AN  22354.91157574  .00002460  00000-0  17259-3 0  9993,2 53022  53.2183 317.9068 0002695  29.2469 330.8674 15.08849846 26107,6917.85,95.437,541.58,537.851,0.0
53022.0,STARLINK-4216,PAYLOAD,2022-12-21 07:25:00,15.08828797,0.0003216,53.2192,316.1266,20.0738,340.038,3.1611e-05,2.14e-06,0.0,0 STARLINK-4216,1 53022U 22076AN  22355.30903024  .00000214  00000-0  31611-4 0  9990,2 53022  53.2192 316.1266 0003216  20.0738 340.0380 15.08828797 25698,6917.915,95.438,542.004,537.555,0.0
53022.0,STARLINK-4216,PAYLOAD,2022-12-22 08:51:10,15.08839834,0.0002751,53.2183,311.365,25.8855,334.2274,-0.00012517,-2.28e-05,0.0,0 STARLINK-4216,1 53022U 22076AN  22356.36887215 -.00002280  00000-0 -12517-3 0  9990,2 53022  53.2183 311.3650 0002751  25.8855 334.2274 15.08839834 26320,6917.880999999999,95.438,541.649,537.8430000000002,0.0
53022.0,STARLINK-4216,PAYLOAD,2022-12-22 21:34:15,15.08838194,0.0002856999999999,53.2181,308.9862,24.6231,335.4897,0.00010319,1.354e-05,0.0,0 STARLINK-4216,1 53022U 22076AN  22356.89878787  .00001354  00000-0  10319-3 0  9999,2 53022  53.2181 308.9862 0002857  24.6231 335.4897 15.08838194 25935,6917.886,95.438,541.727,537.774,0.0
53022.0,STARLINK-4216,PAYLOAD,2022-12-23 13:28:07,15.08829746,0.0002637,53.2184,306.0121,24.3968,335.7149,0.00020858,3.032e-05,0.0,0 STARLINK-4216,1 53022U 22076AN  22357.56119457  .00003032  00000-0  20858-3 0  9990,2 53022  53.2184 306.0121 0002637  24.3968 335.7149 15.08829746 26505,6917.9119999999975,95.438,541.601,537.952,0.0
53022.0,STARLINK-4216,PAYLOAD,2022-12-24 06:57:21,15.08840097,0.0002618,53.2191,302.7427,27.843000000000004,332.2702,0.00022459,3.288e-05,0.0,0 STARLINK-4216,1 53022U 22076AN  22358.28983427  .00003288  00000-0  22459-3 0  9998,2 53022  53.2191 302.7427 0002618  27.8430 332.2702 15.08840097 26145,6917.88,95.438,541.556,537.934,0.0
53022.0,STARLINK-4216,PAYLOAD,2022-12-24 13:18:54,15.08839592,0.00027,53.2187,301.5529,27.8119,332.3017,0.0001453999999999,2.026e-05,0.0,0 STARLINK-4216,1 53022U 22076AN  22358.55479648  .00002026  00000-0  14540-3 0  9994,2 53022  53.2187 301.5529 0002700  27.8119 332.3017 15.08839592 26188,6917.882,95.438,541.614,537.879,0.0
53022.0,STARLINK-4216,PAYLOAD,2022-12-25 05:12:45,15.08850853,0.00027,53.2172,298.577,22.4984,337.6126,-0.00014635,-2.618e-05,0.0,0 STARLINK-4216,1 53022U 22076AN  22359.21719296 -.00002618  00000-0 -14635-3 0  9998,2 53022  53.2172 298.5770 0002700  22.4984 337.6126 15.08850853 26751,6917.847,95.437,541.58,537.844,0.0
53022.0,STARLINK-4216,PAYLOAD,2022-12-25 13:09:41,15.0883997,0.0002576,53.2171,297.0911,21.6122,338.4978,8.9757e-05,1.14e-05,0.0,0 STARLINK-4216,1 53022U 22076AN  22359.54839400  .00001140  00000-0  89757-4 0  9999,2 53022  53.2171 297.0911 0002576  21.6122 338.4978 15.08839970 26332,6917.88,95.438,541.528,537.9630000000002,0.0
53022.0,STARLINK-4216,PAYLOAD,2022-12-25 22:42:00,15.08834507,0.0002734,53.2186,295.308,29.6603,330.4544,4.5202e-05,4.31e-06,0.0,0 STARLINK-4216,1 53022U 22076AN  22359.94584092  .00000431  00000-0  45202-4 0  9996,2 53022  53.2186 295.3080 0002734  29.6603 330.4544 15.08834507 26864,6917.897,95.438,541.654,537.871,0.0
